ONEWEB-0361             
1 49287U 21090J   24068.09686774 -.00000008  00000+0 -51361-4 0  9998
2 49287  87.9123  79.8438 0002069  91.4956 268.6414 13.20771930121426
ONEWEB-0362             
1 49288U 21090K   24067.54282769  .00000048  00000+0  87584-4 0  9992
2 49288  87.9128 110.5351 0001604  92.7758 267.3558 13.19725561117222
ONEWEB-0364             
1 49290U 21090M   24068.07475161  .00001264  00000+0  30766-2 0  9993
2 49290  87.9118  79.8636 0001339  84.0547 276.0739 13.20783936122554
ONEWEB-0365             
1 49291U 21090N   24067.55230671  .00000053  00000+0  10111-3 0  9999
2 49291  87.9121 110.5203 0001863  93.5401 266.5945 13.19725702116739
ONEWEB-0366             
1 49292U 21090P   24068.15356872  .00000150  00000+0  36951-3 0  9997
2 49292  87.8901  95.1154 0002102  90.0098 270.1273 13.14501917119686
ONEWEB-0368             
1 49294U 21090R   24068.08423966  .00000048  00000+0  85326-4 0  9997
2 49294  87.9124  79.8653 0002767  82.2080 277.9367 13.20772360122570
